STARLINK-1183           
1 45088U 20006AW  26068.75280610  .00001220  00000+0  53321-4 0  9996
2 45088  53.1598 242.2900 0001212  78.0692 282.0445 15.30192923337097
TRANSPORTER-11 OBJECT A 
1 60468U 24149A   26068.74646182  .00010774  00000+0  36054-3 0  9993
2 60468  97.3780 149.0949 0003110 191.0010 169.1164 15.31141332 86830
